{
  "type": "FeatureCollection",
  "features": [
    {
      "type": "Feature",
      "properties": {
        "norad_id": 40730,
        "name": "GPS BIIF-10 (PRN 08)",
        "group": "gps-ops",
        "lat": -26.858520049468893,
        "lon": -106.64057814661031,
        "alt_km": 20038.435898044,
        "timestamp": "2025-12-11T05:00:26.567789+00:00",
        "meta_object_name": "GPS BIIF-10 (PRN 08)",
        "meta_object_id": "2015-033A",
        "meta_epoch": "2025-12-10T18:08:59.885952",
        "meta_mean_motion": 2.00565667,
        "meta_eccentricity": 0.01108361,
        "meta_inclination": 54.1324,
        "meta_ra_of_asc_node": 274.8545,
        "meta_arg_of_pericenter": 26.7633,
        "meta_mean_anomaly": 333.8214,
        "meta_ephemeris_type": 0,
        "meta_classification_type": "U",
        "meta_norad_cat_id": 40730,
        "meta_element_set_no": 999,
        "meta_rev_at_epoch": 7621,
        "meta_bstar": 0,
        "meta_mean_motion_dot": -6.3e-07,
        "meta_mean_motion_ddot": 0,
        "tle_line1": "1 40730U 15033A   25344.75624868 -.00000063  00000+0  00000+0 0  9998",
        "tle_line2": "2 40730  54.1324 274.8545 0110836  26.7633 333.8214  2.00565667 76213"
      },
      "geometry": {
        "type": "Point",
        "coordinates": [
          -106.64057814661031,
          -26.858520049468893
        ]
      }
    },
    {
      "type": "Feature",
      "properties": {
        "norad_id": 41019,
        "name": "GPS BIIF-11 (PRN 10)",
        "group": "gps-ops",
        "lat": -54.36760915738874,
        "lon": -27.665710159922977,
        "alt_km": 20012.281446768004,
        "timestamp": "2025-12-11T05:00:26.567800+00:00",
        "meta_object_name": "GPS BIIF-11 (PRN 10)",
        "meta_object_id": "2015-062A",
        "meta_epoch": "2025-12-10T07:36:33.024096",
        "meta_mean_motion": 2.00567034,
        "meta_eccentricity": 0.01107574,
        "meta_inclination": 56.8304,
        "meta_ra_of_asc_node": 38.096,
        "meta_arg_of_pericenter": 229.8791,
        "meta_mean_anomaly": 129.1964,
        "meta_ephemeris_type": 0,
        "meta_classification_type": "U",
        "meta_norad_cat_id": 41019,
        "meta_element_set_no": 999,
        "meta_rev_at_epoch": 7404,
        "meta_bstar": 0,
        "meta_mean_motion_dot": -8.8e-07,
        "meta_mean_motion_ddot": 0,
        "tle_line1": "1 41019U 15062A   25344.31704889 -.00000088  00000+0  00000+0 0  9992",
        "tle_line2": "2 41019  56.8304  38.0960 0110757 229.8791 129.1964  2.00567034 74042"
      },
      "geometry": {
        "type": "Point",
        "coordinates": [
          -27.665710159922977,
          -54.36760915738874
        ]
      }
    },
    {
      "type": "Feature",
      "properties": {
        "norad_id": 41328,
        "name": "GPS BIIF-12 (PRN 32)",
        "group": "gps-ops",
        "lat": -34.12892888104604,
        "lon": -55.22967041826496,
        "alt_km": 19957.68734335946,
        "timestamp": "2025-12-11T05:00:26.567811+00:00",
        "meta_object_name": "GPS BIIF-12 (PRN 32)",
        "meta_object_id": "2016-007A",
        "meta_epoch": "2025-12-10T09:35:17.707200",
        "meta_mean_motion": 2.005608,
        "meta_eccentricity": 0.00920502,
        "meta_inclination": 55.4049,
        "meta_ra_of_asc_node": 96.9499,
        "meta_arg_of_pericenter": 243.5192,
        "meta_mean_anomaly": 115.5235,
        "meta_ephemeris_type": 0,
        "meta_classification_type": "U",
        "meta_norad_cat_id": 41328,
        "meta_element_set_no": 999,
        "meta_rev_at_epoch": 7205,
        "meta_bstar": 0,
        "meta_mean_motion_dot": 3e-08,
        "meta_mean_motion_ddot": 0,
        "tle_line1": "1 41328U 16007A   25344.39951050  .00000003  00000+0  00000+0 0  9993",
        "tle_line2": "2 41328  55.4049  96.9499 0092050 243.5192 115.5235  2.00560800 72052"
      },
      "geometry": {
        "type": "Point",
        "coordinates": [
          -55.22967041826496,
          -34.12892888104604
        ]
      }
    },
    {
      "type": "Feature",
      "properties": {
        "norad_id": 43873,
        "name": "GPS BIII-1  (PRN 04)",
        "group": "gps-ops",
        "lat": 46.98562434898498,
        "lon": -127.66724940087913,
        "alt_km": 20155.21779648743,
        "timestamp": "2025-12-11T05:00:26.567822+00:00",
        "meta_object_name": "GPS BIII-1  (PRN 04)",
        "meta_object_id": "2018-109A",
        "meta_epoch": "2025-12-10T13:28:44.931360",
        "meta_mean_motion": 2.00553503,
        "meta_eccentricity": 0.00372579,
        "meta_inclination": 55.5664,
        "meta_ra_of_asc_node": 99.6325,
        "meta_arg_of_pericenter": 194.8351,
        "meta_mean_anomaly": 175.9534,
        "meta_ephemeris_type": 0,
        "meta_classification_type": "U",
        "meta_norad_cat_id": 43873,
        "meta_element_set_no": 999,
        "meta_rev_at_epoch": 5129,
        "meta_bstar": 0,
        "meta_mean_motion_dot": 8e-08,
        "meta_mean_motion_ddot": 0,
        "tle_line1": "1 43873U 18109A   25344.56163115  .00000008  00000+0  00000+0 0  9996",
        "tle_line2": "2 43873  55.5664  99.6325 0037257 194.8351 175.9534  2.00553503 51291"
      },
      "geometry": {
        "type": "Point",
        "coordinates": [
          -127.66724940087913,
          46.98562434898498
        ]
      }
    },
    {
      "type": "Feature",
      "properties": {
        "norad_id": 44506,
        "name": "GPS BIII-2  (PRN 18)",
        "group": "gps-ops",
        "lat": 12.245683538478474,
        "lon": -12.881133945902208,
        "alt_km": 20333.52460922896,
        "timestamp": "2025-12-11T05:00:26.567833+00:00",
        "meta_object_name": "GPS BIII-2  (PRN 18)",
        "meta_object_id": "2019-056A",
        "meta_epoch": "2025-12-10T10:16:28.629696",
        "meta_mean_motion": 2.00566128,
        "meta_eccentricity": 0.00577597,
        "meta_inclination": 55.7221,
        "meta_ra_of_asc_node": 338.6437,
        "meta_arg_of_pericenter": 198.4903,
        "meta_mean_anomaly": 332.7667,
        "meta_ephemeris_type": 0,
        "meta_classification_type": "U",
        "meta_norad_cat_id": 44506,
        "meta_element_set_no": 999,
        "meta_rev_at_epoch": 4628,
        "meta_bstar": 0,
        "meta_mean_motion_dot": -8.6e-07,
        "meta_mean_motion_ddot": 0,
        "tle_line1": "1 44506U 19056A   25344.42810914 -.00000086  00000+0  00000+0 0  9990",
        "tle_line2": "2 44506  55.7221 338.6437 0057759 198.4903 332.7667  2.00566128 46288"
      },
      "geometry": {
        "type": "Point",
        "coordinates": [
          -12.881133945902208,
          12.245683538478474
        ]
      }
    },
    {
      "type": "Feature",
      "properties": {
        "norad_id": 45854,
        "name": "GPS BIII-3  (PRN 23)",
        "group": "gps-ops",
        "lat": -32.79288346477833,
        "lon": 11.068814113752394,
        "alt_km": 20256.408465299533,
        "timestamp": "2025-12-11T05:00:26.567844+00:00",
        "meta_object_name": "GPS BIII-3  (PRN 23)",
        "meta_object_id": "2020-041A",
        "meta_epoch": "2025-12-10T06:22:51.669120",
        "meta_mean_motion": 2.00561869,
        "meta_eccentricity": 0.0060434,
        "meta_inclination": 56.5455,
        "meta_ra_of_asc_node": 36.2815,
        "meta_arg_of_pericenter": 203.3429,
        "meta_mean_anomaly": 154.8897,
        "meta_ephemeris_type": 0,
        "meta_classification_type": "U",
        "meta_norad_cat_id": 45854,
        "meta_element_set_no": 999,
        "meta_rev_at_epoch": 4024,
        "meta_bstar": 0,
        "meta_mean_motion_dot": -9e-07,
        "meta_mean_motion_ddot": 0,
        "tle_line1": "1 45854U 20041A   25344.26587580 -.00000090  00000+0  00000+0 0  9990",
        "tle_line2": "2 45854  56.5455  36.2815 0060434 203.3429 154.8897  2.00561869 40242"
      },
      "geometry": {
        "type": "Point",
        "coordinates": [
          11.068814113752394,
          -32.79288346477833
        ]
      }
    },
    {
      "type": "Feature",
      "properties": {
        "norad_id": 46826,
        "name": "GPS BIII-4  (PRN 14)",
        "group": "gps-ops",
        "lat": -49.25396009007856,
        "lon": 160.9683939870974,
        "alt_km": 20177.70505859657,
        "timestamp": "2025-12-11T05:00:26.567855+00:00",
        "meta_object_name": "GPS BIII-4  (PRN 14)",
        "meta_object_id": "2020-078A",
        "meta_epoch": "2025-12-10T01:06:32.862816",
        "meta_mean_motion": 2.00566796,
        "meta_eccentricity": 0.00646,
        "meta_inclination": 54.0157,
        "meta_ra_of_asc_node": 218.4503,
        "meta_arg_of_pericenter": 203.3563,
        "meta_mean_anomaly": 327.1751,
        "meta_ephemeris_type": 0,
        "meta_classification_type": "U",
        "meta_norad_cat_id": 46826,
        "meta_element_set_no": 999,
        "meta_rev_at_epoch": 3771,
        "meta_bstar": 0,
        "meta_mean_motion_dot": 7e-08,
        "meta_mean_motion_ddot": 0,
        "tle_line1": "1 46826U 20078A   25344.04621369  .00000007  00000+0  00000+0 0  9997",
        "tle_line2": "2 46826  54.0157 218.4503 0064600 203.3563 327.1751  2.00566796 37716"
      },
      "geometry": {
        "type": "Point",
        "coordinates": [
          160.9683939870974,
          -49.25396009007856
        ]
      }
    }
  ]
}